GLOBALSTAR M067 [+]     
1 32263U 07048A   23256.92161758 -.00000011  00000+0  63942-3 0  9991
2 32263  51.9715 115.1824 0001636  59.6490  43.0068 12.40631704729767
GLOBALSTAR M070 [+]     
1 32264U 07048B   23256.83546965 -.00000061  00000+0  24144-3 0  9995
2 32264  51.9743 285.2991 0000739 120.7965  52.4715 12.62278062732544
GLOBALSTAR M066 [+]     
1 32265U 07048C   23256.93155451 -.00000038  00000+0  36530-3 0  9999
2 32265  51.9669 147.0833 0000938   6.0265  78.1793 12.62264222734829
GLOBALSTAR M068 [-]     
1 32266U 07048D   23256.83123215 -.00000046  00000+0  32363-3 0  9991
2 32266  51.9880 100.2711 0001184 117.5066 253.9205 12.62766413736408
GLOBALSTAR M079 [+]     
1 37188U 10054A   23256.86088297 -.00000078  00000+0  14458-3 0  9993
2 37188  52.0038 295.1346 0000285  76.7722  95.8598 12.62267688595330
GLOBALSTAR M074 [+]     
1 37189U 10054B   23256.88733701 -.00000070  00000+0  19072-3 0  9992
2 37189  52.0015 294.4762 0000430 101.5415  71.4663 12.62269859595940
GLOBALSTAR M076 [+]     
1 37190U 10054C   23256.83454574 -.00000061  00000+0  23817-3 0  9999
2 37190  52.0028 294.7481 0000798  54.9445 118.9048 12.62261152595658
GLOBALSTAR M077 [+]     
1 37191U 10054D   23256.94542510 -.00000102  00000+0  10294-4 0  9992
2 37191  52.0052 251.0817 0000380  87.1576 289.3279 12.62260732596041
